{
    "links": {
        "self": "http://www.neowsapp.com/rest/v1/neo/3549695?api_key=iIulBulltgU6a56xZRHN4H3l9WmuAYTsLGpBGhQ2"
    },
    "id": "3549695",
    "neo_reference_id": "3549695",
    "name": "(2010 UO)",
    "designation": "2010 UO",
    "nasa_jpl_url": "http://ssd.jpl.nasa.gov/sbdb.cgi?sstr=3549695",
    "absolute_magnitude_h": 26.3,
    "estimated_diameter": {
        "kilometers": {
            "estimated_diameter_min": 0.0146067964,
            "estimated_diameter_max": 0.0326617897
        },
        "meters": {
            "estimated_diameter_min": 14.6067964271,
            "estimated_diameter_max": 32.6617897446
        },
        "miles": {
            "estimated_diameter_min": 0.0090762397,
            "estimated_diameter_max": 0.020295089
        },
        "feet": {
            "estimated_diameter_min": 47.92256199,
            "estimated_diameter_max": 107.1581062656
        }
    },
    "is_potentially_hazardous_asteroid": false,
    "close_approach_data": [
        {
            "close_approach_date": "2010-10-17",
            "close_approach_date_full": "2010-Oct-17 01:45",
            "epoch_date_close_approach": 1287279900000,
            "relative_velocity": {
                "kilometers_per_second": "4.9807408795",
                "kilometers_per_hour": "17930.6671660834",
                "miles_per_hour": "11141.4192732811"
            },
            "miss_distance": {
                "astronomical": "0.0284996691",
                "lunar": "11.0863712799",
                "kilometers": "4263489.793064817",
                "miles": "2649209.7119237946"
            },
            "orbiting_body": "Earth"
        },
        {
            "close_approach_date": "2015-11-15",
            "close_approach_date_full": "2015-Nov-15 17:44",
            "epoch_date_close_approach": 1447609440000,
            "relative_velocity": {
                "kilometers_per_second": "12.8435811137",
                "kilometers_per_hour": "46236.8920093654",
                "miles_per_hour": "28729.8065932637"
            },
            "miss_distance": {
                "astronomical": "0.2905671477",
                "lunar": "113.0306204553",
                "kilometers": "43468226.387895399",
                "miles": "27009903.4115745462"
            },
            "orbiting_body": "Earth"
        }
    ],
    "orbital_data": {
        "orbit_id": "8",
        "orbit_determination_date": "2017-04-06 08:56:11",
        "first_observation_date": "2010-10-19",
        "last_observation_date": "2010-10-29",
        "data_arc_in_days": 10,
        "observations_used": 20,
        "orbit_uncertainty": "8",
        "minimum_orbit_intersection": ".0285152",
        "jupiter_tisserand_invariant": "4.672",
        "epoch_osculation": "2455490.5",
        "eccentricity": ".2820194518886655",
        "semi_major_axis": "1.415347440454161",
        "inclination": "5.571079943488923",
        "ascending_node_longitude": "212.4602197819904",
        "orbital_period": "615.0253582655421",
        "perihelion_distance": "1.016191931065253",
        "perihelion_argument": "159.4747285212855",
        "aphelion_distance": "1.814502949843069",
        "perihelion_time": "2455475.995613151496",
        "mean_anomaly": "8.490022720668017",
        "mean_motion": ".5853417182915036",
        "equinox": "J2000",
        "orbit_class": {
            "orbit_class_type": "APO",
            "orbit_class_description": "Near-Earth asteroid orbits which cross the Earth’s orbit similar to that of 1862 Apollo",
            "orbit_class_range": "a (semi-major axis) > 1.0 AU; q (perihelion) < 1.017 AU"
        }
    },
    "is_sentry_object": false
}